STARLINK-30286          
1 57647U 23122R   25211.71641494 -.00000107  00000+0  71427-5 0  9990
2 57647  43.0023 220.5711 0001365 284.0150  76.0540 15.02534745108799
STARLINK-30243          
1 57648U 23122S   25211.50366467 -.00000025  00000+0  13240-4 0  9999
2 57648  43.0017 221.5615 0001572 286.8331  73.2338 15.02531656108756
STARLINK-30299          
1 57650U 23122U   25211.71307966  .00000882  00000+0  80320-4 0  9997
2 57650  43.0024 220.5492 0001863 292.3000  67.7644 15.02554113108792
STARLINK-30294          
1 57651U 23122V   25211.70672512  .00004661  00000+0  35983-3 0  9992
2 57651  43.0020 207.7845 0001209 292.3877  67.6837 15.02544355108941
STARLINK-30276          
1 57652U 23122W   25212.03881430  .00000018  00000+0  16438-4 0  9998
2 57652  43.0020 218.6930 0001625 286.3433  73.7230 15.02534853108825
STARLINK-30289          
1 57653U 23122X   25211.71004308  .00000208  00000+0  30443-4 0  9997
2 57653  43.0018 207.7598 0001469 309.4726  50.5986 15.02536893108940
STARLINK-30267          
1 57663U 23124A   25211.54775203  .00000303  00000+0  22350-4 0  9994
2 57663  53.1588 158.8576 0001168  85.0384 275.0750 15.30194865109551
STARLINK-30298          
1 57665U 23124C   25212.13770606 -.00003720  00000+0 -11345-3 0  9993
2 57665  53.1594 156.1570 0001226  84.9122 275.2019 15.30218729109644
STARLINK-30301          
1 57666U 23124D   25212.16732541  .00001276  00000+0  55207-4 0  9991
2 57666  53.1606 217.7630 0001191  75.3642 284.7491 15.30199382108755
STARLINK-30275          
1 57667U 23124E   25211.24225524 -.00000367  00000+0 -27982-6 0  9991
2 57667  53.1597 160.3198 0001242 103.0871 257.0268 15.30190411109500
STARLINK-30278          
1 57668U 23124F   25211.56355895 -.00000242  00000+0  39624-5 0  9998
2 57668  53.1602 158.7964 0001442  96.6358 263.4807 15.30188803109556
STARLINK-30271          
1 57669U 23124G   25212.16508744 -.00000270  00000+0  30206-5 0  9997
2 57669  53.1604 156.0157 0001329  82.0388 278.0764 15.30189182109645
STARLINK-30322          
1 57670U 23124H   25211.56777751 -.00000550  00000+0 -64451-5 0  9999
2 57670  53.1598 158.8044 0001352  95.9735 264.1420 15.30186844109556
STARLINK-30296          
1 57671U 23124J   25212.13874610 -.00000768  00000+0 -13831-4 0  9992
2 57671  53.1588 156.1025 0001148 101.1572 258.9558 15.30182226109348
STARLINK-30274          
1 57672U 23124K   25211.14320790  .00001010  00000+0  46225-4 0  9990
2 57672  53.1585 160.6583 0001494  86.0392 274.0780 15.30196167109491
STARLINK-30316          
1 57673U 23124L   25212.14402303 -.00001744  00000+0 -46815-4 0  9994
2 57673  53.1589 156.1395 0001098  95.9418 264.1708 15.30180424109348
STARLINK-30317          
1 57675U 23124N   25211.91668981  .00093261  00000+0  27182-2 0  9993
2 57675  53.1571 156.1939 0002487 158.8294 223.2246 15.34618706109626
