[{"OBJECT_NAME":"STARLINK-30286","OBJECT_ID":"2023-122R","EPOCH":"2025-07-30T17:11:38.250816","MEAN_MOTION":15.02534745,"ECCENTRICITY":0.0001365,"INCLINATION":43.0023,"RA_OF_ASC_NODE":220.5711,"ARG_OF_PERICENTER":284.015,"MEAN_ANOMALY":76.054,"EPHEMERIS_TYPE":0,"CLASSIFICATION_TYPE":"U","NORAD_CAT_ID":57647,"ELEMENT_SET_NO":999,"REV_AT_EPOCH":10879,"BSTAR":7.1427e-6,"MEAN_MOTION_DOT":-1.07e-6,"MEAN_MOTION_DDOT":0},{"OBJECT_NAME":"STARLINK-30243","OBJECT_ID":"2023-122S","EPOCH":"2025-07-30T12:05:16.627488","MEAN_MOTION":15.02531656,"ECCENTRICITY":0.0001572,"INCLINATION":43.0017,"RA_OF_ASC_NODE":221.5615,"ARG_OF_PERICENTER":286.8331,"MEAN_ANOMALY":73.2338,"EPHEMERIS_TYPE":0,"CLASSIFICATION_TYPE":"U","NORAD_CAT_ID":57648,"ELEMENT_SET_NO":999,"REV_AT_EPOCH":10875,"BSTAR":1.324e-5,"MEAN_MOTION_DOT":-2.5e-7,"MEAN_MOTION_DDOT":0},{"OBJECT_NAME":"STARLINK-30299","OBJECT_ID":"2023-122U","EPOCH":"2025-07-30T17:06:50.082624","MEAN_MOTION":15.02554113,"ECCENTRICITY":0.0001863,"INCLINATION":43.0024,"RA_OF_ASC_NODE":220.5492,"ARG_OF_PERICENTER":292.3,"MEAN_ANOMALY":67.7644,"EPHEMERIS_TYPE":0,"CLASSIFICATION_TYPE":"U","NORAD_CAT_ID":57650,"ELEMENT_SET_NO":999,"REV_AT_EPOCH":10879,"BSTAR":8.032e-5,"MEAN_MOTION_DOT":8.82e-6,"MEAN_MOTION_DDOT":0},{"OBJECT_NAME":"STARLINK-30294","OBJECT_ID":"2023-122V","EPOCH":"2025-07-30T16:57:41.050368","MEAN_MOTION":15.02544355,"ECCENTRICITY":0.0001209,"INCLINATION":43.002,"RA_OF_ASC_NODE":207.7845,"ARG_OF_PERICENTER":292.3877,"MEAN_ANOMALY":67.6837,"EPHEMERIS_TYPE":0,"CLASSIFICATION_TYPE":"U","NORAD_CAT_ID":57651,"ELEMENT_SET_NO":999,"REV_AT_EPOCH":10894,"BSTAR":0.00035983,"MEAN_MOTION_DOT":4.661e-5,"MEAN_MOTION_DDOT":0},{"OBJECT_NAME":"STARLINK-30276","OBJECT_ID":"2023-122W","EPOCH":"2025-07-31T00:55:53.555520","MEAN_MOTION":15.02534853,"ECCENTRICITY":0.0001625,"INCLINATION":43.002,"RA_OF_ASC_NODE":218.693,"ARG_OF_PERICENTER":286.3433,"MEAN_ANOMALY":73.723,"EPHEMERIS_TYPE":0,"CLASSIFICATION_TYPE":"U","NORAD_CAT_ID":57652,"ELEMENT_SET_NO":999,"REV_AT_EPOCH":10882,"BSTAR":1.6438e-5,"MEAN_MOTION_DOT":1.8e-7,"MEAN_MOTION_DDOT":0},{"OBJECT_NAME":"STARLINK-30289","OBJECT_ID":"2023-122X","EPOCH":"2025-07-30T17:02:27.722112","MEAN_MOTION":15.02536893,"ECCENTRICITY":0.0001469,"INCLINATION":43.0018,"RA_OF_ASC_NODE":207.7598,"ARG_OF_PERICENTER":309.4726,"MEAN_ANOMALY":50.5986,"EPHEMERIS_TYPE":0,"CLASSIFICATION_TYPE":"U","NORAD_CAT_ID":57653,"ELEMENT_SET_NO":999,"REV_AT_EPOCH":10894,"BSTAR":3.0443e-5,"MEAN_MOTION_DOT":2.08e-6,"MEAN_MOTION_DDOT":0},{"OBJECT_NAME":"STARLINK-30267","OBJECT_ID":"2023-124A","EPOCH":"2025-07-30T13:08:45.775392","MEAN_MOTION":15.30194865,"ECCENTRICITY":0.0001168,"INCLINATION":53.1588,"RA_OF_ASC_NODE":158.8576,"ARG_OF_PERICENTER":85.0384,"MEAN_ANOMALY":275.075,"EPHEMERIS_TYPE":0,"CLASSIFICATION_TYPE":"U","NORAD_CAT_ID":57663,"ELEMENT_SET_NO":999,"REV_AT_EPOCH":10955,"BSTAR":2.235e-5,"MEAN_MOTION_DOT":3.03e-6,"MEAN_MOTION_DDOT":0},{"OBJECT_NAME":"STARLINK-30298","OBJECT_ID":"2023-124C","EPOCH":"2025-07-31T03:18:17.803584","MEAN_MOTION":15.30218729,"ECCENTRICITY":0.0001226,"INCLINATION":53.1594,"RA_OF_ASC_NODE":156.157,"ARG_OF_PERICENTER":84.9122,"MEAN_ANOMALY":275.2019,"EPHEMERIS_TYPE":0,"CLASSIFICATION_TYPE":"U","NORAD_CAT_ID":57665,"ELEMENT_SET_NO":999,"REV_AT_EPOCH":10964,"BSTAR":-0.00011345,"MEAN_MOTION_DOT":-3.72e-5,"MEAN_MOTION_DDOT":0},{"OBJECT_NAME":"STARLINK-30301","OBJECT_ID":"2023-124D","EPOCH":"2025-07-31T04:00:56.915424","MEAN_MOTION":15.30199382,"ECCENTRICITY":0.0001191,"INCLINATION":53.1606,"RA_OF_ASC_NODE":217.763,"ARG_OF_PERICENTER":75.3642,"MEAN_ANOMALY":284.7491,"EPHEMERIS_TYPE":0,"CLASSIFICATION_TYPE":"U","NORAD_CAT_ID":57666,"ELEMENT_SET_NO":999,"REV_AT_EPOCH":10875,"BSTAR":5.5207e-5,"MEAN_MOTION_DOT":1.276e-5,"MEAN_MOTION_DDOT":0},{"OBJECT_NAME":"STARLINK-30275","OBJECT_ID":"2023-124E","EPOCH":"2025-07-30T05:48:50.852736","MEAN_MOTION":15.30190411,"ECCENTRICITY":0.0001242,"INCLINATION":53.1597,"RA_OF_ASC_NODE":160.3198,"ARG_OF_PERICENTER":103.0871,"MEAN_ANOMALY":257.0268,"EPHEMERIS_TYPE":0,"CLASSIFICATION_TYPE":"U","NORAD_CAT_ID":57667,"ELEMENT_SET_NO":999,"REV_AT_EPOCH":10950,"BSTAR":-2.7982e-7,"MEAN_MOTION_DOT":-3.67e-6,"MEAN_MOTION_DDOT":0},{"OBJECT_NAME":"STARLINK-30278","OBJECT_ID":"2023-124F","EPOCH":"2025-07-30T13:31:31.493280","MEAN_MOTION":15.30188803,"ECCENTRICITY":0.0001442,"INCLINATION":53.1602,"RA_OF_ASC_NODE":158.7964,"ARG_OF_PERICENTER":96.6358,"MEAN_ANOMALY":263.4807,"EPHEMERIS_TYPE":0,"CLASSIFICATION_TYPE":"U","NORAD_CAT_ID":57668,"ELEMENT_SET_NO":999,"REV_AT_EPOCH":10955,"BSTAR":3.9624e-6,"MEAN_MOTION_DOT":-2.42e-6,"MEAN_MOTION_DDOT":0},{"OBJECT_NAME":"STARLINK-30271","OBJECT_ID":"2023-124G","EPOCH":"2025-07-31T03:57:43.554816","MEAN_MOTION":15.30189182,"ECCENTRICITY":0.0001329,"INCLINATION":53.1604,"RA_OF_ASC_NODE":156.0157,"ARG_OF_PERICENTER":82.0388,"MEAN_ANOMALY":278.0764,"EPHEMERIS_TYPE":0,"CLASSIFICATION_TYPE":"U","NORAD_CAT_ID":57669,"ELEMENT_SET_NO":999,"REV_AT_EPOCH":10964,"BSTAR":3.0206e-6,"MEAN_MOTION_DOT":-2.7e-6,"MEAN_MOTION_DDOT":0},{"OBJECT_NAME":"STARLINK-30322","OBJECT_ID":"2023-124H","EPOCH":"2025-07-30T13:37:35.976864","MEAN_MOTION":15.30186844,"ECCENTRICITY":0.0001352,"INCLINATION":53.1598,"RA_OF_ASC_NODE":158.8044,"ARG_OF_PERICENTER":95.9735,"MEAN_ANOMALY":264.142,"EPHEMERIS_TYPE":0,"CLASSIFICATION_TYPE":"U","NORAD_CAT_ID":57670,"ELEMENT_SET_NO":999,"REV_AT_EPOCH":10955,"BSTAR":-6.4451e-6,"MEAN_MOTION_DOT":-5.5e-6,"MEAN_MOTION_DDOT":0},{"OBJECT_NAME":"STARLINK-30296","OBJECT_ID":"2023-124J","EPOCH":"2025-07-31T03:19:47.663040","MEAN_MOTION":15.30182226,"ECCENTRICITY":0.0001148,"INCLINATION":53.1588,"RA_OF_ASC_NODE":156.1025,"ARG_OF_PERICENTER":101.1572,"MEAN_ANOMALY":258.9558,"EPHEMERIS_TYPE":0,"CLASSIFICATION_TYPE":"U","NORAD_CAT_ID":57671,"ELEMENT_SET_NO":999,"REV_AT_EPOCH":10934,"BSTAR":-1.3831e-5,"MEAN_MOTION_DOT":-7.68e-6,"MEAN_MOTION_DDOT":0},{"OBJECT_NAME":"STARLINK-30274","OBJECT_ID":"2023-124K","EPOCH":"2025-07-30T03:26:13.162560","MEAN_MOTION":15.30196167,"ECCENTRICITY":0.0001494,"INCLINATION":53.1585,"RA_OF_ASC_NODE":160.6583,"ARG_OF_PERICENTER":86.0392,"MEAN_ANOMALY":274.078,"EPHEMERIS_TYPE":0,"CLASSIFICATION_TYPE":"U","NORAD_CAT_ID":57672,"ELEMENT_SET_NO":999,"REV_AT_EPOCH":10949,"BSTAR":4.6225e-5,"MEAN_MOTION_DOT":1.01e-5,"MEAN_MOTION_DDOT":0},{"OBJECT_NAME":"STARLINK-30316","OBJECT_ID":"2023-124L","EPOCH":"2025-07-31T03:27:23.589792","MEAN_MOTION":15.30180424,"ECCENTRICITY":0.0001098,"INCLINATION":53.1589,"RA_OF_ASC_NODE":156.1395,"ARG_OF_PERICENTER":95.9418,"MEAN_ANOMALY":264.1708,"EPHEMERIS_TYPE":0,"CLASSIFICATION_TYPE":"U","NORAD_CAT_ID":57673,"ELEMENT_SET_NO":999,"REV_AT_EPOCH":10934,"BSTAR":-4.6815e-5,"MEAN_MOTION_DOT":-1.744e-5,"MEAN_MOTION_DDOT":0},{"OBJECT_NAME":"STARLINK-30317","OBJECT_ID":"2023-124N","EPOCH":"2025-07-30T22:00:01.999584","MEAN_MOTION":15.34618706,"ECCENTRICITY":0.0002487,"INCLINATION":53.1571,"RA_OF_ASC_NODE":156.1939,"ARG_OF_PERICENTER":158.8294,"MEAN_ANOMALY":223.2246,"EPHEMERIS_TYPE":0,"CLASSIFICATION_TYPE":"U","NORAD_CAT_ID":57675,"ELEMENT_SET_NO":999,"REV_AT_EPOCH":10962,"BSTAR":0.0027182,"MEAN_MOTION_DOT":0.00093261,"MEAN_MOTION_DDOT":0}]
